[{"OBJECT_NAME":"SHIJIAN-6 02B (SJ-6 02B)","OBJECT_ID":"2006-046B","EPOCH":"2026-03-09T23:09:06.940224","MEAN_MOTION":15.01001333,"ECCENTRICITY":0.00140021,"INCLINATION":97.7065,"RA_OF_ASC_NODE":98.697,"ARG_OF_PERICENTER":42.7506,"MEAN_ANOMALY":317.4805,"EPHEMERIS_TYPE":0,"CLASSIFICATION_TYPE":"U","NORAD_CAT_ID":29506,"ELEMENT_SET_NO":999,"REV_AT_EPOCH":5585,"BSTAR":0.00024683398,"MEAN_MOTION_DOT":3.096e-5,"MEAN_MOTION_DDOT":0},{"OBJECT_NAME":"STARLINK-30067","OBJECT_ID":"2023-067F","EPOCH":"2026-03-09T22:18:02.822976","MEAN_MOTION":15.02534016,"ECCENTRICITY":0.0001088,"INCLINATION":43.0035,"RA_OF_ASC_NODE":273.3696,"ARG_OF_PERICENTER":270.2297,"MEAN_ANOMALY":89.842,"EPHEMERIS_TYPE":0,"CLASSIFICATION_TYPE":"U","NORAD_CAT_ID":56693,"ELEMENT_SET_NO":999,"REV_AT_EPOCH":15569,"BSTAR":0.00025963215,"MEAN_MOTION_DOT":3.305e-5,"MEAN_MOTION_DDOT":0}]
